{"type": "FeatureCollection", "features": [ {"type": "Feature", "properties": {"norad_id": 34432, "name": "COSMOS 2251 DEB", "group": "cosmos-2251-debris", "lat": -73.81425476665805, "lon": 16.757650743363154, "alt_km": 861.3751487176078, "timestamp": "2025-12-09T09:46:48.039974+00:00", "meta": {"OBJECT_NAME": "COSMOS 2251 DEB", "OBJECT_ID": "1993-036RZ", "EPOCH": "2025-12-08T19:32:50.005824", "MEAN_MOTION": 14.02881819, "ECCENTRICITY": 0.01828184, "INCLINATION": 73.8287, "RA_OF_ASC_NODE": 109.2404, "ARG_OF_PERICENTER": 192.5149, "MEAN_ANOMALY": 321.1458, "EPHEMERIS_TYPE": 0, "CLASSIFICATION_TYPE": "U", "NORAD_CAT_ID": 34432, "ELEMENT_SET_NO": 999, "REV_AT_EPOCH": 85629, "BSTAR": 0.0023167671, "MEAN_MOTION_DOT": 4.136e-05, "MEAN_MOTION_DDOT": 0}, "tle": {"line1": "1 34432U 93036RZ  25342.81446766  .00004136  00000+0  23168-2 0  9990", "line2": "2 34432  73.8287 109.2404 0182818 192.5149 321.1458 14.02881819856298"}}, "geometry": {"type": "Point", "coordinates": [16.757650743363154, -73.81425476665805]}}, {"type": "Feature", "properties": {"norad_id": 34433, "name": "COSMOS 2251 DEB", "group": "cosmos-2251-debris", "lat": 8.325529632235074, "lon": -21.56197531092633, "alt_km": 918.2345718990618, "timestamp": "2025-12-09T09:46:48.039984+00:00", "meta": {"OBJECT_NAME": "COSMOS 2251 DEB", "OBJECT_ID": "1993-036SA", "EPOCH": "2025-12-08T22:45:44.652672", "MEAN_MOTION": 14.12826602, "ECCENTRICITY": 0.0151933, "INCLINATION": 74.0116, "RA_OF_ASC_NODE": 161.6553, "ARG_OF_PERICENTER": 300.4832, "MEAN_ANOMALY": 58.1378, "EPHEMERIS_TYPE": 0, "CLASSIFICATION_TYPE": "U", "NORAD_CAT_ID": 34433, "ELEMENT_SET_NO": 999, "REV_AT_EPOCH": 85896, "BSTAR": 0.0014623, "MEAN_MOTION_DOT": 3.008e-05, "MEAN_MOTION_DDOT": 0}, "tle": {"line1": "1 34433U 93036SA  25342.94843348  .00003008  00000+0  14623-2 0  9995", "line2": "2 34433  74.0116 161.6553 0151933 300.4832  58.1378 14.12826602858967"}}, "geometry": {"type": "Point", "coordinates": [-21.56197531092633, 8.325529632235074]}}, {"type": "Feature", "properties": {"norad_id": 34434, "name": "COSMOS 2251 DEB", "group": "cosmos-2251-debris", "lat": -20.124999705531042, "lon": 9.782604928263268, "alt_km": 1134.8470993986493, "timestamp": "2025-12-09T09:46:48.039995+00:00", "meta": {"OBJECT_NAME": "COSMOS 2251 DEB", "OBJECT_ID": "1993-036SB", "EPOCH": "2025-12-09T05:03:19.890432", "MEAN_MOTION": 13.8977263, "ECCENTRICITY": 0.0275765, "INCLINATION": 74.0628, "RA_OF_ASC_NODE": 16.1275, "ARG_OF_PERICENTER": 154.2502, "MEAN_ANOMALY": 280.6722, "EPHEMERIS_TYPE": 0, "CLASSIFICATION_TYPE": "U", "NORAD_CAT_ID": 34434, "ELEMENT_SET_NO": 999, "REV_AT_EPOCH": 83917, "BSTAR": 0.0025901, "MEAN_MOTION_DOT": 4.299e-05, "MEAN_MOTION_DDOT": 0}, "tle": {"line1": "1 34434U 93036SB  25343.21064688  .00004299  00000+0  25901-2 0  9993", "line2": "2 34434  74.0628  16.1275 0275765 154.2502 280.6722 13.89772630839171"}}, "geometry": {"type": "Point", "coordinates": [9.782604928263268, -20.124999705531042]}}, {"type": "Feature", "properties": {"norad_id": 34446, "name": "COSMOS 2251 DEB", "group": "cosmos-2251-debris", "lat": 7.815681962492342, "lon": -118.72027022009067, "alt_km": 697.8746237197965, "timestamp": "2025-12-09T09:46:48.040005+00:00", "meta": {"OBJECT_NAME": "COSMOS 2251 DEB", "OBJECT_ID": "1993-036SP", "EPOCH": "2025-12-09T00:42:17.220672", "MEAN_MOTION": 14.49345782, "ECCENTRICITY": 0.0051332, "INCLINATION": 74.0423, "RA_OF_ASC_NODE": 64.2394, "ARG_OF_PERICENTER": 203.1198, "MEAN_ANOMALY": 156.7653, "EPHEMERIS_TYPE": 0, "CLASSIFICATION_TYPE": "U", "NORAD_CAT_ID": 34446, "ELEMENT_SET_NO": 999, "REV_AT_EPOCH": 88640, "BSTAR": 0.00023875, "MEAN_MOTION_DOT": 8.99e-06, "MEAN_MOTION_DDOT": 0}, "tle": {"line1": "1 34446U 93036SP  25343.02936598  .00000899  00000+0  23875-3 0  9994", "line2": "2 34446  74.0423  64.2394 0051332 203.1198 156.7653 14.49345782886405"}}, "geometry": {"type": "Point", "coordinates": [-118.72027022009067, 7.815681962492342]}}, {"type": "Feature", "properties": {"norad_id": 34449, "name": "COSMOS 2251 DEB", "group": "cosmos-2251-debris", "lat": 42.32332394874579, "lon": -117.8366775256838, "alt_km": 563.9584983837376, "timestamp": "2025-12-09T09:46:48.040016+00:00", "meta": {"OBJECT_NAME": "COSMOS 2251 DEB", "OBJECT_ID": "1993-036SS", "EPOCH": "2025-12-08T17:39:25.551360", "MEAN_MOTION": 14.9449464, "ECCENTRICITY": 0.00236222, "INCLINATION": 74.0326, "RA_OF_ASC_NODE": 78.6312, "ARG_OF_PERICENTER": 123.9757, "MEAN_ANOMALY": 358.5514, "EPHEMERIS_TYPE": 0, "CLASSIFICATION_TYPE": "U", "NORAD_CAT_ID": 34449, "ELEMENT_SET_NO": 999, "REV_AT_EPOCH": 88633, "BSTAR": 0.0038729423, "MEAN_MOTION_DOT": 0.00042265, "MEAN_MOTION_DDOT": 0}, "tle": {"line1": "1 34449U 93036SS  25342.73571240  .00042265  00000+0  38729-2 0  9999", "line2": "2 34449  74.0326  78.6312 0023622 123.9757 358.5514 14.94494640886338"}}, "geometry": {"type": "Point", "coordinates": [-117.8366775256838, 42.32332394874579]}}, {"type": "Feature", "properties": {"norad_id": 34451, "name": "COSMOS 2251 DEB", "group": "cosmos-2251-debris", "lat": 72.17252733431604, "lon": -148.2233332609825, "alt_km": 558.1194954282628, "timestamp": "2025-12-09T09:46:48.040026+00:00", "meta": {"OBJECT_NAME": "COSMOS 2251 DEB", "OBJECT_ID": "1993-036SU", "EPOCH": "2025-12-08T17:17:09.361536", "MEAN_MOTION": 14.95183105, "ECCENTRICITY": 0.00246355, "INCLINATION": 74.0463, "RA_OF_ASC_NODE": 95.9753, "ARG_OF_PERICENTER": 118.67, "MEAN_ANOMALY": 241.6966, "EPHEMERIS_TYPE": 0, "CLASSIFICATION_TYPE": "U", "NORAD_CAT_ID": 34451, "ELEMENT_SET_NO": 999, "REV_AT_EPOCH": 88575, "BSTAR": 0.0038625549, "MEAN_MOTION_DOT": 0.00042922, "MEAN_MOTION_DDOT": 0}, "tle": {"line1": "1 34451U 93036SU  25342.72024724  .00042922  00000+0  38626-2 0  9997", "line2": "2 34451  74.0463  95.9753 0024635 118.6700 241.6966 14.95183105885758"}}, "geometry": {"type": "Point", "coordinates": [-148.2233332609825, 72.17252733431604]}}, {"type": "Feature", "properties": {"norad_id": 34452, "name": "COSMOS 2251 DEB", "group": "cosmos-2251-debris", "lat": -5.016355943833412, "lon": -171.7242901499252, "alt_km": 533.0402575153375, "timestamp": "2025-12-09T09:46:48.040037+00:00", "meta": {"OBJECT_NAME": "COSMOS 2251 DEB", "OBJECT_ID": "1993-036SV", "EPOCH": "2025-12-09T00:56:54.570336", "MEAN_MOTION": 15.11529096, "ECCENTRICITY": 0.0066815, "INCLINATION": 74.036, "RA_OF_ASC_NODE": 190.4766, "ARG_OF_PERICENTER": 267.6055, "MEAN_ANOMALY": 245.021, "EPHEMERIS_TYPE": 0, "CLASSIFICATION_TYPE": "U", "NORAD_CAT_ID": 34452, "ELEMENT_SET_NO": 999, "REV_AT_EPOCH": 90606, "BSTAR": 0.00087516, "MEAN_MOTION_DOT": 0.00015644, "MEAN_MOTION_DDOT": 0}, "tle": {"line1": "1 34452U 93036SV  25343.03952049  .00015644  00000+0  87516-3 0  9997", "line2": "2 34452  74.0360 190.4766 0066815 267.6055 245.0210 15.11529096906064"}}, "geometry": {"type": "Point", "coordinates": [-171.7242901499252, -5.016355943833412]}}, {"type": "Feature", "properties": {"norad_id": 34453, "name": "COSMOS 2251 DEB", "group": "cosmos-2251-debris", "lat": 36.71468521290363, "lon": -85.47403906974891, "alt_km": 361.2985635997511, "timestamp": "2025-12-09T09:46:48.040047+00:00", "meta": {"OBJECT_NAME": "COSMOS 2251 DEB", "OBJECT_ID": "1993-036SW", "EPOCH": "2025-12-08T17:54:20.652768", "MEAN_MOTION": 15.70960191, "ECCENTRICITY": 0.00219389, "INCLINATION": 74.11, "RA_OF_ASC_NODE": 108.2841, "ARG_OF_PERICENTER": 342.0248, "MEAN_ANOMALY": 18.0197, "EPHEMERIS_TYPE": 0, "CLASSIFICATION_TYPE": "U", "NORAD_CAT_ID": 34453, "ELEMENT_SET_NO": 999, "REV_AT_EPOCH": 88804, "BSTAR": 0.011594108, "MEAN_MOTION_DOT": 0.01651435, "MEAN_MOTION_DDOT": 0}, "tle": {"line1": "1 34453U 93036SW  25342.74607237  .01651435  00000+0  11594-1 0  9997", "line2": "2 34453  74.1100 108.2841 0021938 342.0248  18.0197 15.70960191888047"}}, "geometry": {"type": "Point", "coordinates": [-85.47403906974891, 36.71468521290363]}}, {"type": "Feature", "properties": {"norad_id": 34454, "name": "COSMOS 2251 DEB", "group": "cosmos-2251-debris", "lat": -0.719513017356019, "lon": 103.97972194417076, "alt_km": 789.7793993714622, "timestamp": "2025-12-09T09:46:48.040058+00:00", "meta": {"OBJECT_NAME": "COSMOS 2251 DEB", "OBJECT_ID": "1993-036SX", "EPOCH": "2025-12-09T03:56:10.293792", "MEAN_MOTION": 14.38798484, "ECCENTRICITY": 0.003546, "INCLINATION": 74.0586, "RA_OF_ASC_NODE": 284.2223, "ARG_OF_PERICENTER": 347.4617, "MEAN_ANOMALY": 12.5651, "EPHEMERIS_TYPE": 0, "CLASSIFICATION_TYPE": "U", "NORAD_CAT_ID": 34454, "ELEMENT_SET_NO": 999, "REV_AT_EPOCH": 88016, "BSTAR": 0.00042345, "MEAN_MOTION_DOT": 1.285e-05, "MEAN_MOTION_DDOT": 0}, "tle": {"line1": "1 34454U 93036SX  25343.16400803  .00001285  00000+0  42345-3 0  9996", "line2": "2 34454  74.0586 284.2223 0035460 347.4617  12.5651 14.38798484880164"}}, "geometry": {"type": "Point", "coordinates": [103.97972194417076, -0.719513017356019]}}, {"type": "Feature", "properties": {"norad_id": 34459, "name": "COSMOS 2251 DEB", "group": "cosmos-2251-debris", "lat": -72.89963862526454, "lon": -168.28236115678286, "alt_km": 815.2926930473277, "timestamp": "2025-12-09T09:46:48.040069+00:00", "meta": {"OBJECT_NAME": "COSMOS 2251 DEB", "OBJECT_ID": "1993-036TC", "EPOCH": "2025-12-09T03:18:29.491776", "MEAN_MOTION": 14.00489018, "ECCENTRICITY": 0.0192038, "INCLINATION": 74.0793, "RA_OF_ASC_NODE": 260.2738, "ARG_OF_PERICENTER": 330.8664, "MEAN_ANOMALY": 28.186, "EPHEMERIS_TYPE": 0, "CLASSIFICATION_TYPE": "U", "NORAD_CAT_ID": 34459, "ELEMENT_SET_NO": 999, "REV_AT_EPOCH": 85661, "BSTAR": 0.00077778, "MEAN_MOTION_DOT": 1.33e-05, "MEAN_MOTION_DDOT": 0}, "tle": {"line1": "1 34459U 93036TC  25343.13784134  .00001330  00000+0  77778-3 0  9999", "line2": "2 34459  74.0793 260.2738 0192038 330.8664  28.1860 14.00489018856614"}}, "geometry": {"type": "Point", "coordinates": [-168.28236115678286, -72.89963862526454]}}]}